KUIPER-00061            
1 64521U 25134X   25202.37767197  .00026864  00000+0  77765-3 0  9991
2 64521  51.8745 196.3749 0005004 209.6842 150.3860 15.35388404  5525
KUIPER-00062            
1 64522U 25134Y   25202.24156498  .00033755  00000+0  96345-3 0  9996
2 64522  51.8751 196.9648 0004357 194.7701 165.3158 15.35714695  5054
KUIPER-00063            
1 64523U 25134Z   25202.94770166  .00027244  00000+0  76647-3 0  9997
2 64523  51.8741 193.4498 0002383 161.3420 198.7654 15.36281905  5622
KUIPER-00064            
1 64524U 25134AA  25202.67734958  .00021785  00000+0  60366-3 0  9992
2 64524  51.8762 194.6383 0001472 115.4373 244.6766 15.36887601  5582
KUIPER-00065            
1 64525U 25134AB  25202.39150649  .00019613  00000+0  58405-3 0  9999
2 64525  51.8699 196.4573 0008169 210.5770 149.4740 15.34671922  5524
KUIPER-00066            
1 64526U 25134AC  25202.68198390  .00018608  00000+0  52161-3 0  9993
2 64526  51.8757 194.6703 0001455 134.4195 225.6911 15.36634836  5589
