<?xml version="1.0" encoding="UTF-8"?>
<ndm xmlns:xsi="http://www.w3.org/2001/XMLSchema-instance" xsi:noNamespaceSchemaLocation="https://sanaregistry.org/r/ndmxml_unqualified/ndmxml-2.0.0-master-2.0.xsd">
<omm id="CCSDS_OMM_VERS" version="2.0">
<header><CREATION_DATE/><ORIGINATOR/></header><body><segment><metadata><OBJECT_NAME>KUIPER-00061</OBJECT_NAME><OBJECT_ID>2025-134X</OBJECT_ID><CENTER_NAME>EARTH</CENTER_NAME><REF_FRAME>TEME</REF_FRAME><TIME_SYSTEM>UTC</TIME_SYSTEM><MEAN_ELEMENT_THEORY>SGP4</MEAN_ELEMENT_THEORY></metadata><data><meanElements><EPOCH>2025-07-21T09:03:50.858208</EPOCH><MEAN_MOTION>15.35388404</MEAN_MOTION><ECCENTRICITY>.0005004</ECCENTRICITY><INCLINATION>51.8745</INCLINATION><RA_OF_ASC_NODE>196.3749</RA_OF_ASC_NODE><ARG_OF_PERICENTER>209.6842</ARG_OF_PERICENTER><MEAN_ANOMALY>150.3860</MEAN_ANOMALY></meanElements><tleParameters><EPHEMERIS_TYPE>0</EPHEMERIS_TYPE><CLASSIFICATION_TYPE>U</CLASSIFICATION_TYPE><NORAD_CAT_ID>64521</NORAD_CAT_ID><ELEMENT_SET_NO>999</ELEMENT_SET_NO><REV_AT_EPOCH>552</REV_AT_EPOCH><BSTAR>.77765E-3</BSTAR><MEAN_MOTION_DOT>.26864E-3</MEAN_MOTION_DOT><MEAN_MOTION_DDOT>0</MEAN_MOTION_DDOT></tleParameters></data></segment></body></omm>
<omm id="CCSDS_OMM_VERS" version="2.0">
<header><CREATION_DATE/><ORIGINATOR/></header><body><segment><metadata><OBJECT_NAME>KUIPER-00062</OBJECT_NAME><OBJECT_ID>2025-134Y</OBJECT_ID><CENTER_NAME>EARTH</CENTER_NAME><REF_FRAME>TEME</REF_FRAME><TIME_SYSTEM>UTC</TIME_SYSTEM><MEAN_ELEMENT_THEORY>SGP4</MEAN_ELEMENT_THEORY></metadata><data><meanElements><EPOCH>2025-07-21T05:47:51.214272</EPOCH><MEAN_MOTION>15.35714695</MEAN_MOTION><ECCENTRICITY>.0004357</ECCENTRICITY><INCLINATION>51.8751</INCLINATION><RA_OF_ASC_NODE>196.9648</RA_OF_ASC_NODE><ARG_OF_PERICENTER>194.7701</ARG_OF_PERICENTER><MEAN_ANOMALY>165.3158</MEAN_ANOMALY></meanElements><tleParameters><EPHEMERIS_TYPE>0</EPHEMERIS_TYPE><CLASSIFICATION_TYPE>U</CLASSIFICATION_TYPE><NORAD_CAT_ID>64522</NORAD_CAT_ID><ELEMENT_SET_NO>999</ELEMENT_SET_NO><REV_AT_EPOCH>505</REV_AT_EPOCH><BSTAR>.96345E-3</BSTAR><MEAN_MOTION_DOT>.33755E-3</MEAN_MOTION_DOT><MEAN_MOTION_DDOT>0</MEAN_MOTION_DDOT></tleParameters></data></segment></body></omm>
<omm id="CCSDS_OMM_VERS" version="2.0">
<header><CREATION_DATE/><ORIGINATOR/></header><body><segment><metadata><OBJECT_NAME>KUIPER-00063</OBJECT_NAME><OBJECT_ID>2025-134Z</OBJECT_ID><CENTER_NAME>EARTH</CENTER_NAME><REF_FRAME>TEME</REF_FRAME><TIME_SYSTEM>UTC</TIME_SYSTEM><MEAN_ELEMENT_THEORY>SGP4</MEAN_ELEMENT_THEORY></metadata><data><meanElements><EPOCH>2025-07-21T22:44:41.423424</EPOCH><MEAN_MOTION>15.36281905</MEAN_MOTION><ECCENTRICITY>.0002383</ECCENTRICITY><INCLINATION>51.8741</INCLINATION><RA_OF_ASC_NODE>193.4498</RA_OF_ASC_NODE><ARG_OF_PERICENTER>161.3420</ARG_OF_PERICENTER><MEAN_ANOMALY>198.7654</MEAN_ANOMALY></meanElements><tleParameters><EPHEMERIS_TYPE>0</EPHEMERIS_TYPE><CLASSIFICATION_TYPE>U</CLASSIFICATION_TYPE><NORAD_CAT_ID>64523</NORAD_CAT_ID><ELEMENT_SET_NO>999</ELEMENT_SET_NO><REV_AT_EPOCH>562</REV_AT_EPOCH><BSTAR>.76647E-3</BSTAR><MEAN_MOTION_DOT>.27244E-3</MEAN_MOTION_DOT><MEAN_MOTION_DDOT>0</MEAN_MOTION_DDOT></tleParameters></data></segment></body></omm>
<omm id="CCSDS_OMM_VERS" version="2.0">
<header><CREATION_DATE/><ORIGINATOR/></header><body><segment><metadata><OBJECT_NAME>KUIPER-00064</OBJECT_NAME><OBJECT_ID>2025-134AA</OBJECT_ID><CENTER_NAME>EARTH</CENTER_NAME><REF_FRAME>TEME</REF_FRAME><TIME_SYSTEM>UTC</TIME_SYSTEM><MEAN_ELEMENT_THEORY>SGP4</MEAN_ELEMENT_THEORY></metadata><data><meanElements><EPOCH>2025-07-21T16:15:23.003712</EPOCH><MEAN_MOTION>15.36887601</MEAN_MOTION><ECCENTRICITY>.0001472</ECCENTRICITY><INCLINATION>51.8762</INCLINATION><RA_OF_ASC_NODE>194.6383</RA_OF_ASC_NODE><ARG_OF_PERICENTER>115.4373</ARG_OF_PERICENTER><MEAN_ANOMALY>244.6766</MEAN_ANOMALY></meanElements><tleParameters><EPHEMERIS_TYPE>0</EPHEMERIS_TYPE><CLASSIFICATION_TYPE>U</CLASSIFICATION_TYPE><NORAD_CAT_ID>64524</NORAD_CAT_ID><ELEMENT_SET_NO>999</ELEMENT_SET_NO><REV_AT_EPOCH>558</REV_AT_EPOCH><BSTAR>.60366E-3</BSTAR><MEAN_MOTION_DOT>.21785E-3</MEAN_MOTION_DOT><MEAN_MOTION_DDOT>0</MEAN_MOTION_DDOT></tleParameters></data></segment></body></omm>
<omm id="CCSDS_OMM_VERS" version="2.0">
<header><CREATION_DATE/><ORIGINATOR/></header><body><segment><metadata><OBJECT_NAME>KUIPER-00065</OBJECT_NAME><OBJECT_ID>2025-134AB</OBJECT_ID><CENTER_NAME>EARTH</CENTER_NAME><REF_FRAME>TEME</REF_FRAME><TIME_SYSTEM>UTC</TIME_SYSTEM><MEAN_ELEMENT_THEORY>SGP4</MEAN_ELEMENT_THEORY></metadata><data><meanElements><EPOCH>2025-07-21T09:23:46.160736</EPOCH><MEAN_MOTION>15.34671922</MEAN_MOTION><ECCENTRICITY>.0008169</ECCENTRICITY><INCLINATION>51.8699</INCLINATION><RA_OF_ASC_NODE>196.4573</RA_OF_ASC_NODE><ARG_OF_PERICENTER>210.5770</ARG_OF_PERICENTER><MEAN_ANOMALY>149.4740</MEAN_ANOMALY></meanElements><tleParameters><EPHEMERIS_TYPE>0</EPHEMERIS_TYPE><CLASSIFICATION_TYPE>U</CLASSIFICATION_TYPE><NORAD_CAT_ID>64525</NORAD_CAT_ID><ELEMENT_SET_NO>999</ELEMENT_SET_NO><REV_AT_EPOCH>552</REV_AT_EPOCH><BSTAR>.58405E-3</BSTAR><MEAN_MOTION_DOT>.19613E-3</MEAN_MOTION_DOT><MEAN_MOTION_DDOT>0</MEAN_MOTION_DDOT></tleParameters></data></segment></body></omm>
<omm id="CCSDS_OMM_VERS" version="2.0">
<header><CREATION_DATE/><ORIGINATOR/></header><body><segment><metadata><OBJECT_NAME>KUIPER-00066</OBJECT_NAME><OBJECT_ID>2025-134AC</OBJECT_ID><CENTER_NAME>EARTH</CENTER_NAME><REF_FRAME>TEME</REF_FRAME><TIME_SYSTEM>UTC</TIME_SYSTEM><MEAN_ELEMENT_THEORY>SGP4</MEAN_ELEMENT_THEORY></metadata><data><meanElements><EPOCH>2025-07-21T16:22:03.408960</EPOCH><MEAN_MOTION>15.36634836</MEAN_MOTION><ECCENTRICITY>.0001455</ECCENTRICITY><INCLINATION>51.8757</INCLINATION><RA_OF_ASC_NODE>194.6703</RA_OF_ASC_NODE><ARG_OF_PERICENTER>134.4195</ARG_OF_PERICENTER><MEAN_ANOMALY>225.6911</MEAN_ANOMALY></meanElements><tleParameters><EPHEMERIS_TYPE>0</EPHEMERIS_TYPE><CLASSIFICATION_TYPE>U</CLASSIFICATION_TYPE><NORAD_CAT_ID>64526</NORAD_CAT_ID><ELEMENT_SET_NO>999</ELEMENT_SET_NO><REV_AT_EPOCH>558</REV_AT_EPOCH><BSTAR>.52161E-3</BSTAR><MEAN_MOTION_DOT>.18608E-3</MEAN_MOTION_DOT><MEAN_MOTION_DDOT>0</MEAN_MOTION_DDOT></tleParameters></data></segment></body></omm>
</ndm>
